[{"OBJECT_NAME":"STARLINK-4368","OBJECT_ID":"2022-084AX","EPOCH":"2026-03-09T17:11:24.509760","MEAN_MOTION":15.01259518,"ECCENTRICITY":8.915e-5,"INCLINATION":97.6053,"RA_OF_ASC_NODE":130.2359,"ARG_OF_PERICENTER":123.5095,"MEAN_ANOMALY":236.6214,"EPHEMERIS_TYPE":0,"CLASSIFICATION_TYPE":"U","NORAD_CAT_ID":53234,"ELEMENT_SET_NO":999,"REV_AT_EPOCH":20033,"BSTAR":5.1278105e-5,"MEAN_MOTION_DOT":6.0e-6,"MEAN_MOTION_DDOT":0},{"OBJECT_NAME":"D-SAT","OBJECT_ID":"2017-036AF","EPOCH":"2026-03-09T22:00:14.910336","MEAN_MOTION":15.15529522,"ECCENTRICITY":0.00852401,"INCLINATION":97.5487,"RA_OF_ASC_NODE":48.252,"ARG_OF_PERICENTER":144.4633,"MEAN_ANOMALY":216.2319,"EPHEMERIS_TYPE":0,"CLASSIFICATION_TYPE":"U","NORAD_CAT_ID":42794,"ELEMENT_SET_NO":999,"REV_AT_EPOCH":47581,"BSTAR":0.00038655305,"MEAN_MOTION_DOT":7.964e-5,"MEAN_MOTION_DDOT":0}]
